{"fetched_at":"2026-07-09T18:16:42.472Z","source":"https://celestrak.org/NORAD/elements/gp.php?GROUP=oneweb&FORMAT=JSON","constellation":"oneweb","records":[{"OBJECT_NAME":"ONEWEB-0628","OBJECT_ID":"2023-004AF","EPOCH":"2026-07-08T21:41:37.851648","CLASSIFICATION_TYPE":"U","MEAN_MOTION":13.12441381,"ECCENTRICITY":0.00017003,"INCLINATION":87.8957,"RA_OF_ASC_NODE":346.3352,"ARG_OF_PERICENTER":71.5215,"MEAN_ANOMALY":288.6099,"EPHEMERIS_TYPE":0,"NORAD_CAT_ID":55169,"ELEMENT_SET_NO":999,"REV_AT_EPOCH":17088,"BSTAR":0.0003535648,"MEAN_MOTION_DOT":0.0000014,"MEAN_MOTION_DDOT":0},{"OBJECT_NAME":"ONEWEB-0629","OBJECT_ID":"2023-004AG","EPOCH":"2026-07-08T21:46:20.594784","CLASSIFICATION_TYPE":"U","MEAN_MOTION":13.17649165,"ECCENTRICITY":0.00015886,"INCLINATION":87.9136,"RA_OF_ASC_NODE":1.5487,"ARG_OF_PERICENTER":86.4652,"MEAN_ANOMALY":273.6661,"EPHEMERIS_TYPE":0,"NORAD_CAT_ID":55170,"ELEMENT_SET_NO":999,"REV_AT_EPOCH":17044,"BSTAR":-0.000030688556,"MEAN_MOTION_DOT":1e-8,"MEAN_MOTION_DDOT":0},{"OBJECT_NAME":"ONEWEB-0631","OBJECT_ID":"2023-004AH","EPOCH":"2026-07-08T21:04:23.203776","CLASSIFICATION_TYPE":"U","MEAN_MOTION":13.1868643,"ECCENTRICITY":0.00023645,"INCLINATION":87.9189,"RA_OF_ASC_NODE":331.1222,"ARG_OF_PERICENTER":92.7098,"MEAN_ANOMALY":267.4304,"EPHEMERIS_TYPE":0,"NORAD_CAT_ID":55171,"ELEMENT_SET_NO":999,"REV_AT_EPOCH":17253,"BSTAR":0.000077905419,"MEAN_MOTION_DOT":4.4e-7,"MEAN_MOTION_DDOT":0},{"OBJECT_NAME":"ONEWEB-0709","OBJECT_ID":"2023-004AJ","EPOCH":"2026-07-08T22:46:27.001632","CLASSIFICATION_TYPE":"U","MEAN_MOTION":13.11418523,"ECCENTRICITY":0.00025256,"INCLINATION":87.8875,"RA_OF_ASC_NODE":16.7452,"ARG_OF_PERICENTER":103.5511,"MEAN_ANOMALY":256.5899,"EPHEMERIS_TYPE":0,"NORAD_CAT_ID":55172,"ELEMENT_SET_NO":999,"REV_AT_EPOCH":16872,"BSTAR":-0.00022948994,"MEAN_MOTION_DOT":-6.9e-7,"MEAN_MOTION_DDOT":0},{"OBJECT_NAME":"ONEWEB-0710","OBJECT_ID":"2023-004AK","EPOCH":"2026-07-08T20:17:38.294304","CLASSIFICATION_TYPE":"U","MEAN_MOTION":13.17647936,"ECCENTRICITY":0.0001962,"INCLINATION":87.9139,"RA_OF_ASC_NODE":1.5563,"ARG_OF_PERICENTER":87.1748,"MEAN_ANOMALY":272.9608,"EPHEMERIS_TYPE":0,"NORAD_CAT_ID":55173,"ELEMENT_SET_NO":999,"REV_AT_EPOCH":17043,"BSTAR":0.00016290853,"MEAN_MOTION_DOT":7.6e-7,"MEAN_MOTION_DDOT":0},{"OBJECT_NAME":"ONEWEB-0711","OBJECT_ID":"2023-004AL","EPOCH":"2026-07-08T11:05:44.105856","CLASSIFICATION_TYPE":"U","MEAN_MOTION":13.11415014,"ECCENTRICITY":0.0002135,"INCLINATION":87.8881,"RA_OF_ASC_NODE":16.83,"ARG_OF_PERICENTER":69.7914,"MEAN_ANOMALY":290.3443,"EPHEMERIS_TYPE":0,"NORAD_CAT_ID":55174,"ELEMENT_SET_NO":999,"REV_AT_EPOCH":16862,"BSTAR":-0.0010086751,"MEAN_MOTION_DOT":-0.00000345,"MEAN_MOTION_DDOT":0},{"OBJECT_NAME":"ONEWEB-0713","OBJECT_ID":"2023-004AM","EPOCH":"2026-07-08T22:31:47.866080","CLASSIFICATION_TYPE":"U","MEAN_MOTION":13.11416869,"ECCENTRICITY":0.00020048,"INCLINATION":87.8886,"RA_OF_ASC_NODE":16.7373,"ARG_OF_PERICENTER":78.7108,"MEAN_ANOMALY":281.4246,"EPHEMERIS_TYPE":0,"NORAD_CAT_ID":55175,"ELEMENT_SET_NO":999,"REV_AT_EPOCH":16867,"BSTAR":-0.001275868,"MEAN_MOTION_DOT":-0.00000439,"MEAN_MOTION_DDOT":0},{"OBJECT_NAME":"ONEWEB-0715","OBJECT_ID":"2023-004AN","EPOCH":"2026-07-08T22:24:28.177344","CLASSIFICATION_TYPE":"U","MEAN_MOTION":13.11415929,"ECCENTRICITY":0.00025167,"INCLINATION":87.888,"RA_OF_ASC_NODE":16.738,"ARG_OF_PERICENTER":94.8644,"MEAN_ANOMALY":265.2771,"EPHEMERIS_TYPE":0,"NORAD_CAT_ID":55176,"ELEMENT_SET_NO":999,"REV_AT_EPOCH":16871,"BSTAR":-0.0014398643,"MEAN_MOTION_DOT":-0.00000498,"MEAN_MOTION_DDOT":0},{"OBJECT_NAME":"ONEWEB-0716","OBJECT_ID":"2023-004AP","EPOCH":"2026-07-08T18:18:34.097760","CLASSIFICATION_TYPE":"U","MEAN_MOTION":13.17648051,"ECCENTRICITY":0.00017206,"INCLINATION":87.9136,"RA_OF_ASC_NODE":1.5754,"ARG_OF_PERICENTER":97.4505,"MEAN_ANOMALY":262.6822,"EPHEMERIS_TYPE":0,"NORAD_CAT_ID":55177,"ELEMENT_SET_NO":999,"REV_AT_EPOCH":17042,"BSTAR":0.000012913816,"MEAN_MOTION_DOT":1.8e-7,"MEAN_MOTION_DDOT":0},{"OBJECT_NAME":"ONEWEB-0717","OBJECT_ID":"2023-004AQ","EPOCH":"2026-07-08T21:32:58.595424","CLASSIFICATION_TYPE":"U","MEAN_MOTION":13.17649916,"ECCENTRICITY":0.00022342,"INCLINATION":87.9146,"RA_OF_ASC_NODE":1.5383,"ARG_OF_PERICENTER":79.0573,"MEAN_ANOMALY":281.081,"EPHEMERIS_TYPE":0,"NORAD_CAT_ID":55178,"ELEMENT_SET_NO":999,"REV_AT_EPOCH":17049,"BSTAR":0.000078344357,"MEAN_MOTION_DOT":4.3e-7,"MEAN_MOTION_DDOT":0},{"OBJECT_NAME":"ONEWEB-0719","OBJECT_ID":"2023-004AR","EPOCH":"2026-07-08T21:47:33.065376","CLASSIFICATION_TYPE":"U","MEAN_MOTION":13.176502,"ECCENTRICITY":0.00016775,"INCLINATION":87.9146,"RA_OF_ASC_NODE":1.5167,"ARG_OF_PERICENTER":93.075,"MEAN_ANOMALY":267.0573,"EPHEMERIS_TYPE":0,"NORAD_CAT_ID":55179,"ELEMENT_SET_NO":999,"REV_AT_EPOCH":17044,"BSTAR":-0.000077015469,"MEAN_MOTION_DOT":-1.7e-7,"MEAN_MOTION_DDOT":0},{"OBJECT_NAME":"ONEWEB-0530","OBJECT_ID":"2023-029A","EPOCH":"2026-07-08T16:20:05.008992","CLASSIFICATION_TYPE":"U","MEAN_MOTION":13.20772718,"ECCENTRICITY":0.00019505,"INCLINATION":87.9178,"RA_OF_ASC_NODE":270.1846,"ARG_OF_PERICENTER":85.9494,"MEAN_ANOMALY":274.1862,"EPHEMERIS_TYPE":0,"NORAD_CAT_ID":55796,"ELEMENT_SET_NO":999,"REV_AT_EPOCH":16398,"BSTAR":-0.00014022522,"MEAN_MOTION_DOT":-4.4e-7,"MEAN_MOTION_DDOT":0},{"OBJECT_NAME":"ONEWEB-0534","OBJECT_ID":"2023-029B","EPOCH":"2026-07-08T17:52:11.233344","CLASSIFICATION_TYPE":"U","MEAN_MOTION":13.20772854,"ECCENTRICITY":0.00019751,"INCLINATION":87.9181,"RA_OF_ASC_NODE":270.1726,"ARG_OF_PERICENTER":101.7065,"MEAN_ANOMALY":258.429,"EPHEMERIS_TYPE":0,"NORAD_CAT_ID":55797,"ELEMENT_SET_NO":999,"REV_AT_EPOCH":16399,"BSTAR":0.000017042132,"MEAN_MOTION_DOT":2e-7,"MEAN_MOTION_DDOT":0},{"OBJECT_NAME":"ONEWEB-0556","OBJECT_ID":"2023-029C","EPOCH":"2026-07-08T18:01:48.377568","CLASSIFICATION_TYPE":"U","MEAN_MOTION":13.20802587,"ECCENTRICITY":0.00009594,"INCLINATION":87.9177,"RA_OF_ASC_NODE":270.1662,"ARG_OF_PERICENTER":79.3522,"MEAN_ANOMALY":280.7719,"EPHEMERIS_TYPE":0,"NORAD_CAT_ID":55798,"ELEMENT_SET_NO":999,"REV_AT_EPOCH":16399,"BSTAR":0.0013556331,"MEAN_MOTION_DOT":0.00000564,"MEAN_MOTION_DDOT":0},{"OBJECT_NAME":"ONEWEB-0562","OBJECT_ID":"2023-029D","EPOCH":"2026-07-08T17:42:30.348000","CLASSIFICATION_TYPE":"U","MEAN_MOTION":13.20771723,"ECCENTRICITY":0.00015142,"INCLINATION":87.9174,"RA_OF_ASC_NODE":270.1551,"ARG_OF_PERICENTER":83.2147,"MEAN_ANOMALY":276.9158,"EPHEMERIS_TYPE":0,"NORAD_CAT_ID":55799,"ELEMENT_SET_NO":999,"REV_AT_EPOCH":16399,"BSTAR":-0.00010230891,"MEAN_MOTION_DOT":-2.9e-7,"MEAN_MOTION_DDOT":0},{"OBJECT_NAME":"ONEWEB-0563","OBJECT_ID":"2023-029E","EPOCH":"2026-07-08T17:35:12.807168","CLASSIFICATION_TYPE":"U","MEAN_MOTION":13.20773255,"ECCENTRICITY":0.0002064,"INCLINATION":87.9176,"RA_OF_ASC_NODE":270.1861,"ARG_OF_PERICENTER":108.6855,"MEAN_ANOMALY":251.4503,"EPHEMERIS_TYPE":0,"NORAD_CAT_ID":55800,"ELEMENT_SET_NO":999,"REV_AT_EPOCH":16398,"BSTAR":-0.000058712014,"MEAN_MOTION_DOT":-1.1e-7,"MEAN_MOTION_DDOT":0}]}
